[{"OBJECT_NAME":"STARLINK-4188","OBJECT_ID":"2022-062P","EPOCH":"2026-03-09T22:03:55.161216","MEAN_MOTION":15.08823467,"ECCENTRICITY":0.00018408,"INCLINATION":53.2178,"RA_OF_ASC_NODE":33.0875,"ARG_OF_PERICENTER":100.4096,"MEAN_ANOMALY":259.7103,"EPHEMERIS_TYPE":0,"CLASSIFICATION_TYPE":"U","NORAD_CAT_ID":52843,"ELEMENT_SET_NO":999,"REV_AT_EPOCH":20582,"BSTAR":8.4347034e-5,"MEAN_MOTION_DOT":1.054e-5,"MEAN_MOTION_DDOT":0},{"OBJECT_NAME":"CZ-4B R\/B","OBJECT_ID":"2006-046C","EPOCH":"2026-03-09T16:12:15.627168","MEAN_MOTION":15.16904341,"ECCENTRICITY":0.003169,"INCLINATION":97.5596,"RA_OF_ASC_NODE":113.5843,"ARG_OF_PERICENTER":267.3889,"MEAN_ANOMALY":92.3716,"EPHEMERIS_TYPE":0,"CLASSIFICATION_TYPE":"U","NORAD_CAT_ID":29507,"ELEMENT_SET_NO":999,"REV_AT_EPOCH":6004,"BSTAR":0.0003074379,"MEAN_MOTION_DOT":6.066e-5,"MEAN_MOTION_DDOT":0}]
